{{Infobox planet
|width           = 25em
|background      = #FFFFC0 | name=小行星326
 | discoverer=[[约翰·帕利扎|约翰·帕利扎]]
 | discovered=1892年3月19日
 | alt_names=
 | named_after = Tamar Bagrationi
 | mp_category=[[小行星带|主带小行星]]
 | epoch=2011年8月27日 ([[儒略日|JD]] 2453400.5)
 | eccentricity=0.1909789351591863
 | semimajor=2.31687349407048AU
 | perihelion=1.874399461274356AU
 | inclination=23.73155003763274°
 | asc_node=32.29116241479799°
 | arg_peri=238.4344024542834°
 | mean_anomaly=243.3726821951738[[角度|°]]
 | period=1288.106905584382[[日|日]]3.53<br/>([[儒略年|儒略年]])
 | aphelion=2.759347526866604[[天文单位|AU]]
 | dimensions=93.00千米		
 | avg_speed=19.56千米/秒
 | mass=未知
 | density=未知
 | surface_grav=未知
 | escape_velocity=未知
 | rotation=14.184小时
 | spectral_type=[[C-型小行星|C型]]
 | abs_magnitude=9.36
 | albedo=0.0368
 | single_temperature=未知}}

'''小行星326'''（[[英语|英语]]：'''326 Tamara'''）是一颗[[C-型小行星|C型]][[小行星带|主带小行星]]，于1892年3月19日由[[奥地利|奥地利]][[天文学家|天文学家]][[约翰·帕利扎|约翰·帕利扎]]在[[维也纳|维也纳]]发现<ref>[http://ssd.jpl.nasa.gov/sbdb.cgi#top JPL Small-Body Database Browser]</ref>。

==参考资料==
{{reflist}}

{{Minor Planet Number|[[小行星325|325 Heidelberga]]|[[小行星327|327 Columbia]]}}

[[Category:1892年发现的小行星|Category:1892年发现的小行星]]
[[Category:小行星带天体|Category:小行星带天体]]
[[Category:以人名命名的小行星|Category:以人名命名的小行星]]
[[Category:约翰·帕利扎发现的天体|Category:约翰·帕利扎发现的天体]]

{{Beltasteroid-stub}}